SHIYAN-1 (SY-1)         
1 28220U 04012A   26068.73650539  .00016393  00000+0  54854-3 0  9991
2 28220  97.8764 140.5238 0005873  23.6952 336.4557 15.31043463195862
STARLINK-33850          
1 63679U 25085R   26068.25321343  .00032237  00000+0  11759-2 0  9997
2 63679  42.9980  33.3400 0001524 287.4513  72.6172 15.27577816 48792
